QIANFAN-57              
1 62787U 25016C   25243.20868171  .00000097  00000+0  13122-3 0  9990
2 62787  88.9807 113.8870 0002699  79.3069 280.8386 13.50962373 33224
QIANFAN-58              
1 62788U 25016D   25243.25395701  .00000090  00000+0  12029-3 0  9998
2 62788  88.9776 113.7460 0012202 286.6235  73.3576 13.50969017 33276
QIANFAN-59              
1 62789U 25016E   25243.26626864  .00000103  00000+0  14164-3 0  9994
2 62789  88.9800 113.7909 0013182 289.9571  70.0160 13.50965719 33278
QIANFAN-60              
1 62790U 25016F   25243.18382942  .00000106  00000+0  14517-3 0  9998
2 62790  88.9781 113.7984 0013604 287.5847  72.3818 13.50962966 33243
QIANFAN-61              
1 62791U 25016G   25243.27035963  .00000102  00000+0  14001-3 0  9991
2 62791  88.9849 113.8771 0013047 285.9153  74.0560 13.50968587 33278
QIANFAN-62              
1 62792U 25016H   25243.20033255  .00000103  00000+0  14178-3 0  9993
2 62792  88.9795 113.8087 0014430 286.2166  73.7397 13.50962600 33256
QIANFAN-63              
1 62793U 25016J   25243.21275016  .00000094  00000+0  12659-3 0  9999
2 62793  88.9802 113.7491 0014318 291.2720  68.6902 13.50959618 33295
QIANFAN-64              
1 62794U 25016K   25243.27850256  .00000101  00000+0  13796-3 0  9993
2 62794  88.9789 113.7363 0012042 284.5870  75.3946 13.50962240 33299
